{"fetched_at":"2026-07-21T17:53:08.726Z","source":"https://celestrak.org/NORAD/elements/gp.php?GROUP=qianfan&FORMAT=JSON","constellation":"qianfan","records":[{"OBJECT_NAME":"QIANFAN-33","OBJECT_ID":"2024-185Q","EPOCH":"2026-07-21T05:05:06.073440","CLASSIFICATION_TYPE":"U","MEAN_MOTION":13.96721855,"ECCENTRICITY":0.00079781,"INCLINATION":88.979,"RA_OF_ASC_NODE":54.2295,"ARG_OF_PERICENTER":14.5073,"MEAN_ANOMALY":345.6332,"EPHEMERIS_TYPE":0,"NORAD_CAT_ID":61566,"ELEMENT_SET_NO":999,"REV_AT_EPOCH":9993,"BSTAR":0.00013180919,"MEAN_MOTION_DOT":0.00000196,"MEAN_MOTION_DDOT":0},{"OBJECT_NAME":"QIANFAN-34","OBJECT_ID":"2024-185R","EPOCH":"2026-07-21T04:47:50.261856","CLASSIFICATION_TYPE":"U","MEAN_MOTION":14.02485099,"ECCENTRICITY":0.00060585,"INCLINATION":88.9767,"RA_OF_ASC_NODE":53.5027,"ARG_OF_PERICENTER":16.7267,"MEAN_ANOMALY":343.4112,"EPHEMERIS_TYPE":0,"NORAD_CAT_ID":61567,"ELEMENT_SET_NO":999,"REV_AT_EPOCH":10025,"BSTAR":0.000088444522,"MEAN_MOTION_DOT":0.0000015,"MEAN_MOTION_DDOT":0},{"OBJECT_NAME":"QIANFAN-35","OBJECT_ID":"2024-185S","EPOCH":"2026-07-21T06:18:14.376096","CLASSIFICATION_TYPE":"U","MEAN_MOTION":14.28302329,"ECCENTRICITY":0.00040499,"INCLINATION":88.9796,"RA_OF_ASC_NODE":50.997,"ARG_OF_PERICENTER":289.5088,"MEAN_ANOMALY":70.5669,"EPHEMERIS_TYPE":0,"NORAD_CAT_ID":61568,"ELEMENT_SET_NO":999,"REV_AT_EPOCH":10165,"BSTAR":0.00015624593,"MEAN_MOTION_DOT":0.00000404,"MEAN_MOTION_DDOT":0},{"OBJECT_NAME":"QIANFAN-36","OBJECT_ID":"2024-185T","EPOCH":"2026-07-21T05:10:27.823584","CLASSIFICATION_TYPE":"U","MEAN_MOTION":13.55640927,"ECCENTRICITY":0.00080281,"INCLINATION":88.9768,"RA_OF_ASC_NODE":58.0711,"ARG_OF_PERICENTER":113.6515,"MEAN_ANOMALY":246.5482,"EPHEMERIS_TYPE":0,"NORAD_CAT_ID":61569,"ELEMENT_SET_NO":999,"REV_AT_EPOCH":9779,"BSTAR":0.00006138227,"MEAN_MOTION_DOT":5.5e-7,"MEAN_MOTION_DDOT":0},{"OBJECT_NAME":"QIANFAN-37","OBJECT_ID":"2024-232B","EPOCH":"2026-07-21T06:09:22.916736","CLASSIFICATION_TYPE":"U","MEAN_MOTION":13.51011537,"ECCENTRICITY":0.00021842,"INCLINATION":89.0072,"RA_OF_ASC_NODE":19.1616,"ARG_OF_PERICENTER":108.425,"MEAN_ANOMALY":251.7138,"EPHEMERIS_TYPE":0,"NORAD_CAT_ID":62238,"ELEMENT_SET_NO":999,"REV_AT_EPOCH":12894,"BSTAR":0.000052886963,"MEAN_MOTION_DOT":4.6e-7,"MEAN_MOTION_DDOT":0},{"OBJECT_NAME":"QIANFAN-38","OBJECT_ID":"2024-232C","EPOCH":"2026-07-21T04:58:13.855584","CLASSIFICATION_TYPE":"U","MEAN_MOTION":13.51022321,"ECCENTRICITY":0.0012498,"INCLINATION":89.0079,"RA_OF_ASC_NODE":19.0973,"ARG_OF_PERICENTER":279.5587,"MEAN_ANOMALY":80.4151,"EPHEMERIS_TYPE":0,"NORAD_CAT_ID":62239,"ELEMENT_SET_NO":999,"REV_AT_EPOCH":12899,"BSTAR":0.000030216288,"MEAN_MOTION_DOT":3.1e-7,"MEAN_MOTION_DDOT":0},{"OBJECT_NAME":"QIANFAN-39","OBJECT_ID":"2024-232D","EPOCH":"2026-07-21T06:20:38.017824","CLASSIFICATION_TYPE":"U","MEAN_MOTION":14.25533332,"ECCENTRICITY":0.00184443,"INCLINATION":89.0068,"RA_OF_ASC_NODE":12.1842,"ARG_OF_PERICENTER":78.5048,"MEAN_ANOMALY":281.8215,"EPHEMERIS_TYPE":0,"NORAD_CAT_ID":62240,"ELEMENT_SET_NO":999,"REV_AT_EPOCH":13280,"BSTAR":0.000041948387,"MEAN_MOTION_DOT":0.00000114,"MEAN_MOTION_DDOT":0},{"OBJECT_NAME":"QIANFAN-40","OBJECT_ID":"2024-232E","EPOCH":"2026-07-21T05:45:38.198016","CLASSIFICATION_TYPE":"U","MEAN_MOTION":13.51009605,"ECCENTRICITY":0.00115948,"INCLINATION":89.0106,"RA_OF_ASC_NODE":18.74,"ARG_OF_PERICENTER":288.9619,"MEAN_ANOMALY":71.0275,"EPHEMERIS_TYPE":0,"NORAD_CAT_ID":62241,"ELEMENT_SET_NO":999,"REV_AT_EPOCH":12936,"BSTAR":0.000024176341,"MEAN_MOTION_DOT":2.7e-7,"MEAN_MOTION_DDOT":0},{"OBJECT_NAME":"QIANFAN-41","OBJECT_ID":"2024-232F","EPOCH":"2026-07-21T05:57:27.249120","CLASSIFICATION_TYPE":"U","MEAN_MOTION":13.51012546,"ECCENTRICITY":0.00118834,"INCLINATION":89.0077,"RA_OF_ASC_NODE":19.0406,"ARG_OF_PERICENTER":274.742,"MEAN_ANOMALY":85.2374,"EPHEMERIS_TYPE":0,"NORAD_CAT_ID":62242,"ELEMENT_SET_NO":999,"REV_AT_EPOCH":12902,"BSTAR":0.000019905803,"MEAN_MOTION_DOT":2.5e-7,"MEAN_MOTION_DDOT":0},{"OBJECT_NAME":"QIANFAN-42","OBJECT_ID":"2024-232G","EPOCH":"2026-07-21T06:17:51.089568","CLASSIFICATION_TYPE":"U","MEAN_MOTION":14.24621802,"ECCENTRICITY":0.00173354,"INCLINATION":89.0066,"RA_OF_ASC_NODE":12.2643,"ARG_OF_PERICENTER":84.5974,"MEAN_ANOMALY":275.7195,"EPHEMERIS_TYPE":0,"NORAD_CAT_ID":62243,"ELEMENT_SET_NO":999,"REV_AT_EPOCH":13276,"BSTAR":0.000040965203,"MEAN_MOTION_DOT":0.0000011,"MEAN_MOTION_DDOT":0},{"OBJECT_NAME":"QIANFAN-43","OBJECT_ID":"2024-232H","EPOCH":"2026-07-21T05:51:31.443552","CLASSIFICATION_TYPE":"U","MEAN_MOTION":13.51011932,"ECCENTRICITY":0.00134447,"INCLINATION":89.0081,"RA_OF_ASC_NODE":19.116,"ARG_OF_PERICENTER":280.8321,"MEAN_ANOMALY":79.1317,"EPHEMERIS_TYPE":0,"NORAD_CAT_ID":62244,"ELEMENT_SET_NO":999,"REV_AT_EPOCH":9763,"BSTAR":0.000027157714,"MEAN_MOTION_DOT":2.9e-7,"MEAN_MOTION_DDOT":0},{"OBJECT_NAME":"QIANFAN-44","OBJECT_ID":"2024-232J","EPOCH":"2026-07-21T05:33:39.681792","CLASSIFICATION_TYPE":"U","MEAN_MOTION":13.51013812,"ECCENTRICITY":0.0011645,"INCLINATION":89.008,"RA_OF_ASC_NODE":18.9244,"ARG_OF_PERICENTER":277.5878,"MEAN_ANOMALY":82.395,"EPHEMERIS_TYPE":0,"NORAD_CAT_ID":62245,"ELEMENT_SET_NO":999,"REV_AT_EPOCH":12910,"BSTAR":0.000043716151,"MEAN_MOTION_DOT":4e-7,"MEAN_MOTION_DDOT":0},{"OBJECT_NAME":"QIANFAN-45","OBJECT_ID":"2024-232K","EPOCH":"2026-07-21T04:46:24.744864","CLASSIFICATION_TYPE":"U","MEAN_MOTION":13.51011157,"ECCENTRICITY":0.00123063,"INCLINATION":89.0083,"RA_OF_ASC_NODE":19.0821,"ARG_OF_PERICENTER":277.2627,"MEAN_ANOMALY":82.7126,"EPHEMERIS_TYPE":0,"NORAD_CAT_ID":62246,"ELEMENT_SET_NO":999,"REV_AT_EPOCH":12902,"BSTAR":0.000019302291,"MEAN_MOTION_DOT":2.4e-7,"MEAN_MOTION_DDOT":0},{"OBJECT_NAME":"QIANFAN-46","OBJECT_ID":"2024-232L","EPOCH":"2026-07-21T05:21:54.561888","CLASSIFICATION_TYPE":"U","MEAN_MOTION":13.51011802,"ECCENTRICITY":0.0012392,"INCLINATION":89.0079,"RA_OF_ASC_NODE":19.1396,"ARG_OF_PERICENTER":283.6427,"MEAN_ANOMALY":76.3344,"EPHEMERIS_TYPE":0,"NORAD_CAT_ID":62247,"ELEMENT_SET_NO":999,"REV_AT_EPOCH":12898,"BSTAR":0.00004523248,"MEAN_MOTION_DOT":4.1e-7,"MEAN_MOTION_DDOT":0},{"OBJECT_NAME":"QIANFAN-47","OBJECT_ID":"2024-232M","EPOCH":"2026-07-21T05:27:51.559776","CLASSIFICATION_TYPE":"U","MEAN_MOTION":13.5101144,"ECCENTRICITY":0.00128055,"INCLINATION":89.0075,"RA_OF_ASC_NODE":19.0633,"ARG_OF_PERICENTER":282.5798,"MEAN_ANOMALY":77.3921,"EPHEMERIS_TYPE":0,"NORAD_CAT_ID":62248,"ELEMENT_SET_NO":999,"REV_AT_EPOCH":12901,"BSTAR":0.000053749579,"MEAN_MOTION_DOT":4.7e-7,"MEAN_MOTION_DDOT":0},{"OBJECT_NAME":"QIANFAN-48","OBJECT_ID":"2024-232N","EPOCH":"2026-07-21T04:34:17.409792","CLASSIFICATION_TYPE":"U","MEAN_MOTION":13.51016143,"ECCENTRICITY":0.00150954,"INCLINATION":89.0079,"RA_OF_ASC_NODE":19.0774,"ARG_OF_PERICENTER":285.3545,"MEAN_ANOMALY":74.5938,"EPHEMERIS_TYPE":0,"NORAD_CAT_ID":62249,"ELEMENT_SET_NO":999,"REV_AT_EPOCH":12901,"BSTAR":0.000061073021,"MEAN_MOTION_DOT":5.1e-7,"MEAN_MOTION_DDOT":0}]}
