QIANFAN-33              
1 61566U 24185Q   26202.21187585  .00000196  00000+0  13181-3 0  9995
2 61566  88.9790  54.2295 0007978  14.5073 345.6332 13.96721855 99938
QIANFAN-34              
1 61567U 24185R   26202.19988729  .00000150  00000+0  88445-4 0  9998
2 61567  88.9767  53.5027 0006058  16.7267 343.4112 14.02485099100250
QIANFAN-35              
1 61568U 24185S   26202.26266639  .00000404  00000+0  15625-3 0  9997
2 61568  88.9796  50.9970 0004049 289.5088  70.5669 14.28302329101652
QIANFAN-36              
1 61569U 24185T   26202.21559981  .00000055  00000+0  61382-4 0  9992
2 61569  88.9768  58.0711 0008028 113.6515 246.5482 13.55640927 97792
QIANFAN-37              
1 62238U 24232B   26202.25651524  .00000046  00000+0  52887-4 0  9999
2 62238  89.0072  19.1616 0002184 108.4250 251.7138 13.51011537128946
QIANFAN-38              
1 62239U 24232C   26202.20710481  .00000031  00000+0  30216-4 0  9999
2 62239  89.0079  19.0973 0012498 279.5587  80.4151 13.51022321128991
QIANFAN-39              
1 62240U 24232D   26202.26432891  .00000114  00000+0  41948-4 0  9999
2 62240  89.0068  12.1842 0018444  78.5048 281.8215 14.25533332132800
QIANFAN-40              
1 62241U 24232E   26202.24002544  .00000027  00000+0  24176-4 0  9993
2 62241  89.0106  18.7400 0011594 288.9619  71.0275 13.51009605129367
QIANFAN-41              
1 62242U 24232F   26202.24823205  .00000025  00000+0  19906-4 0  9992
2 62242  89.0077  19.0406 0011883 274.7420  85.2374 13.51012546129027
QIANFAN-42              
1 62243U 24232G   26202.26239687  .00000110  00000+0  40965-4 0  9994
2 62243  89.0066  12.2643 0017335  84.5974 275.7195 14.24621802132767
QIANFAN-43              
1 62244U 24232H   26202.24411393  .00000029  00000+0  27158-4 0  9997
2 62244  89.0081  19.1160 0013444 280.8321  79.1317 13.51011932 97633
QIANFAN-44              
1 62245U 24232J   26202.23170928  .00000040  00000+0  43716-4 0  9994
2 62245  89.0080  18.9244 0011645 277.5878  82.3950 13.51013812129100
QIANFAN-45              
1 62246U 24232K   26202.19889751  .00000024  00000+0  19302-4 0  9997
2 62246  89.0083  19.0821 0012306 277.2627  82.7126 13.51011157129021
QIANFAN-46              
1 62247U 24232L   26202.22354817  .00000041  00000+0  45232-4 0  9992
2 62247  89.0079  19.1396 0012392 283.6427  76.3344 13.51011802128981
QIANFAN-47              
1 62248U 24232M   26202.22768009  .00000047  00000+0  53750-4 0  9995
2 62248  89.0075  19.0633 0012805 282.5798  77.3921 13.51011440129014
QIANFAN-48              
1 62249U 24232N   26202.19047928  .00000051  00000+0  61073-4 0  9994
2 62249  89.0079  19.0774 0015095 285.3545  74.5938 13.51016143129012
